00001    3.34  0.12 K1794 309.49412   73.02367   80.30888   10.59322  0.0756074  0.21408881   2.7674094  0 MPO425796  6680 114 1801-2017 0.60 M-v 30h MPCLINUX   0000              (1) Ceres
00002    4.13  0.11 K172G 248.96907  309.99722  173.08842   34.84039  0.2307044  0.21344212   2.7729963  0 MPO394986  7871 107 1821-2016 0.58 M-v 28h MPC        0000              (2) Pallas
00003    5.33  0.32 K172G 213.98291  248.22306  169.85927   12.98994  0.2567897  0.22610725   2.6684540  0 MPO389571  6845 103 1821-2016 0.60 M-v 38h MPC        0000              (3) Juno
00004    3.20  0.32 K172G 238.24738  151.07625  103.84213    7.14052  0.0891360  0.27162959   2.3613009  0 MPO394986  6879 100 1821-2017 0.60 M-p 18h MPC        0000              (4) Vesta
00005    6.85  0.15 K172G  91.26946  358.78527  141.58437    5.36790  0.1915150  0.23874296   2.5734496  0 MPO384741  2300  74 1845-2016 0.58 M-v 38h MPC        0000              (5) Astraea
00006    5.71  0.24 K172G 237.38655  239.82742  138.65286   14.73691  0.2026618  0.26096601   2.4251955  0 MPO389571  5610  87 1848-2016 0.54 M-v 38h MPC        0000              (6) Hebe
00007    5.51  0.15 K172G 286.32027  145.34401  259.56910    5.52334  0.2314009  0.26752359   2.3854006  0 MPO389571  4952  83 1848-2016 0.58 M-v 38h MPC        0000              (7) Iris
00008    6.49  0.28 K1794  13.76136  285.31022  110.90088    5.88654  0.1570288  0.30175473   2.2014052  0 MPO425796  2358  85 1847-2017 0.64 M-v 38h MPCLINUX   0000              (8) Flora
00009    6.28  0.17 K172G  63.45370    5.99675   68.93170    5.57432  0.1220007  0.26736442   2.3863473  0 MPO394986  2447  75 1849-2016 0.60 M-v 38h MPC        0000              (9) Metis
00010    5.43  0.15 K172G  10.78100  312.00936  283.21943    3.83178  0.1128168  0.17712230   3.1401753  0 MPO389571  2941  88 1849-2016 0.58 M-v 38h MPC        0000             (10) Hygiea
00012    7.24  0.22 K172G 272.37799   69.52225  235.41860    8.37049  0.2202427  0.27626952   2.3347877  0 MPO384741  2480  74 1850-2016 0.62 M-v 38h MPC        0000             (12) Victoria
00013    6.74  0.15 K172G 357.03218   80.45062   43.23920   16.53990  0.0836257  0.23834003   2.5763492  0 MPO394986  1883  65 1850-2017 0.60 M-v 38h MPC        0000             (13) Egeria
00014    6.30  0.15 K172G 335.07915   98.09315   86.14516    9.11892  0.1665927  0.23700141   2.5860411  0 MPO394986  2283  72 1851-2017 0.63 M-v 38h MPC        0000             (14) Irene
00015    5.28  0.23 K172G 100.93452   97.60125  293.17643   11.73678  0.1870383  0.22928646   2.6437300  0 MPO394986  2190  77 1851-2017 0.55 M-v 38h MPC        0000             (15) Eunomia
00016    5.90  0.20 K172G 132.33726  227.30384  150.27618    3.09880  0.1356150  0.19719058   2.9233351  0 MPO394986  2676  83 1852-2017 0.56 M-v 38h MPC        0000             (16) Psyche
00018    6.51  0.25 K1794  97.35494  227.82059  150.46690   10.13364  0.2188297  0.28347149   2.2950728  0 MPO425796  4633  73 1852-2017 0.55 M-v 38h MPCLINUX   0000             (18) Melpomene
00020    6.50  0.25 K172G 267.00946  256.58977  206.10555    0.70849  0.1424466  0.26358080   2.4091298  0 MPO394986  2143  80 1856-2016 0.55 M-v 38h MPC        0000             (20) Massalia
00021    7.35  0.11 K172G 136.72286  250.01454   80.88020    3.06377  0.1645870  0.25950450   2.4342927  0 MPO394986  4037  70 1866-2017 0.39 M-v 38h MPC        0000             (21) Lutetia
00025    7.83  0.15 K172G 320.88972   90.22517  214.13690   21.60609  0.2542532  0.26506086   2.4001533  0 MPO384741  2443  67 1860-2016 0.55 M-v 38h MPC        0000             (25) Phocaea
00026    7.5   0.15 K172G 282.95284  193.98377   45.78312    3.56399  0.0907436  0.22786658   2.6547010  0 MPO394986  1679  69 1861-2017 0.49 M-v 38h MPC        0000             (26) Proserpina
00027    7.0   0.15 K172G 115.75627  356.61682   94.78967    1.58368  0.1727947  0.27411026   2.3470330  0 MPO384741  2221  68 1853-2016 0.55 M-v 38h MPC        0000             (27) Euterpe
00029    5.85  0.20 K172G  92.30073   62.25540  356.42165    6.08930  0.0717793  0.24132560   2.5550562  0 MPO394986  2045  89 1855-2017 0.60 M-v 38h MPC        0000             (29) Amphitrite
00030    7.57  0.15 K172G 172.49643   87.23287  307.54048    2.09519  0.1268114  0.27074196   2.3664591  0 MPO384741  2751  70 1860-2016 0.47 M-v 38h MPC        0000             (30) Urania
00031    6.74  0.15 K172G 306.52816   61.43216   31.11897   26.30532  0.2214165  0.17576180   3.1563590  0 MPO394986  1678  56 1860-2017 0.50 M-v 38h MPC        0000             (31) Euphrosyne
00039    6.0   0.15 K172G 131.39396  208.25465  157.11517   10.38052  0.1133809  0.21397983   2.7683489  0 MPO394986  5213  86 1856-2017 0.55 M-v 38h MPC        0000             (39) Laetitia
00040    7.0   0.15 K172G 236.50585  269.77699   94.19384    4.25708  0.0466321  0.28871056   2.2672232  0 MPO384741  4723  65 1864-2016 0.52 M-v 38h MPC        0000             (40) Harmonia
00041    7.12  0.10 K172G 322.39196   45.91390  178.09283   15.79630  0.2758416  0.21490060   2.7604357  0 MPO394986  1910  61 1866-2017 0.53 M-v 38h MPC        0000             (41) Daphne
00042    7.53  0.15 K172G 356.79259  237.35079   84.20007    8.51360  0.2222924  0.25824700   2.4421886  0 MPO389571  2137  70 1856-2016 0.49 M-v 38h MPC        0000             (42) Isis
00043    7.93  0.11 K172G 256.92380   16.19497  264.84891    3.47019  0.1686636  0.30136325   2.2033113  0 MPO394986  1848  69 1864-2017 0.57 M-v 38h MPC        0000             (43) Ariadne
00044    7.03  0.46 K172G 233.76197  343.26690  131.55909    3.70665  0.1482998  0.26125301   2.4234190  0 MPO394986  2219  73 1864-2016 0.54 M-v 38h MPC        0000             (44) Nysa
00048    6.90  0.15 K172G 285.34526  253.41840  183.56518    6.54738  0.0729010  0.17958059   3.1114521  0 MPO394986  2192  79 1860-2016 0.54 M-v 38h MPC        0000             (48) Doris
00052    6.31  0.18 K172G  91.68749  344.10912  128.65409    7.47575  0.1094761  0.18086715   3.0966795  0 MPO389571  2482  77 1860-2016 0.52 M-v 38h MPC        0000             (52) Europa
00063    7.55  0.25 K172G 287.03946  295.74276  337.76601    5.77775  0.1273138  0.26578967   2.3957637  0 MPO394986  2028  64 1861-2016 0.52 M-v 38h MPC        0000             (63) Ausonia
00080    7.98  0.15 K172G 230.71903  139.55576  218.69659    8.67412  0.1996605  0.28319127   2.2965865  0 MPO394987  1736  63 1865-2016 0.58 M-v 38h MPC        0000             (80) Sappho
00082    8.40  0.28 K172G   3.92039  111.42074   25.50140    2.82900  0.2187032  0.21442060   2.7645538  0 MPO394987  1964  69 1864-2017 0.56 M-v 38h MPC        0000             (82) Alkmene
00089    6.60  0.15 K172G 303.76555   45.48063  311.56003   16.12802  0.1843889  0.24203805   2.5500397  0 MPO389572  1711  60 1866-2016 0.54 M-v 38h MPC        0000             (89) Julia
00105    8.57  0.10 K172G 310.91250   56.96844  188.26242   21.44453  0.1777839  0.26946034   2.3739568  0 MPO394987  1573  51 1904-2017 0.48 M-v 38h MPC        0000            (105) Artemis
00128    7.49  0.15 K172G 258.91993  303.89417   76.24604    6.24552  0.1270424  0.21624063   2.7490197  0 MPO394987  1784  65 1872-2016 0.47 M-v 38h MPC        0000            (128) Nemesis
00186    8.91  0.15 K172G 329.49810  315.69055   14.76873   13.18550  0.1496813  0.27157465   2.3616194  0 MPO394988  1378  36 1907-2016 0.46 M-v 38h MPC        0000            (186) Celuta
00196    6.54  0.15 K172G 310.76319  197.23966   72.32880    7.26037  0.0167473  0.17923431   3.1154583  0 MPO394988  2042  73 1879-2016 0.51 M-v 38h MPC        0000            (196) Philomela
00216    7.30  0.29 K172G 261.75270  180.15925  215.36046   13.11351  0.2507298  0.21112175   2.7932774  0 MPO389574  2549  68 1880-2016 0.46 M-v 38h MPC        0000            (216) Kleopatra
00230    7.35  0.27 K172G 169.39434  139.52095  239.86861    9.44498  0.0610234  0.26789675   2.3831850  0 MPO374842  1872  65 1882-2016 0.51 M-v 38h MPC        0000            (230) Athamantis
00270    8.75  0.15 K172G 279.54549   80.67684  254.35363    2.36792  0.1500648  0.30238570   2.1983418  0 MPO394989  1932  56 1897-2016 0.50 M-v 38h MPC        0000            (270) Anahita
00324    6.82  0.09 K172G 270.27154   44.29991  327.86418   11.10055  0.3403591  0.22445990   2.6814943  0 MPO389575  2483  64 1892-2016 0.49 M-v 38h MPC        0000            (324) Bamberga
00344    8.08  0.15 K172G 348.24831  237.46575   48.04521   18.34709  0.3131388  0.23551939   2.5968783  0 MPO384746  1465  39 1892-2016 0.52 M-v 38h MPC        0000            (344) Desiderata
00346    7.13  0.15 K172G 230.73651  292.14500   91.94789    8.75179  0.1014125  0.21085156   2.7956631  0 MPO389576  1623  56 1892-2016 0.47 M-v 38h MPC        0000            (346) Hermentaria
00349    5.93  0.37 K172G 346.38932  346.15307   32.34997    8.24624  0.0915064  0.19711513   2.9240811  0 MPO394990  2199  74 1892-2016 0.55 M-v 38h MPC        0000            (349) Dembowska
00354    6.44  0.37 K172G 165.85046    5.55206  140.37192   18.40190  0.1146117  0.21057462   2.7981137  0 MPO389576  2261  76 1893-2016 0.60 M-v 38h MPC        0000            (354) Eleonora
00372    7.5   0.15 K172G 311.00886  115.57048  327.36902   23.82632  0.2594992  0.17618292   3.1513273  0 MPO394991  1510  59 1895-2017 0.50 M-v 38h MPC        0000            (372) Palma
00409    7.62  0.29 K172G 308.36282  353.42031  242.17093   11.26218  0.0733057  0.23835021   2.5762758  0 MPO394991  2131  72 1895-2017 0.52 M-v 38h MPC        0000            (409) Aspasia
00416    7.89  0.20 K172G 310.35879  198.05042   58.09422   12.86018  0.2187588  0.21123857   2.7922475  0 MPO394991  1789  47 1898-2017 0.46 M-v 38h MPC        0000            (416) Vaticana
00419    8.42  0.15 K172G 344.84626   44.37891  229.12630    3.92617  0.2505962  0.23551949   2.5968776  0 MPO384747  2047  60 1899-2016 0.51 M-v 38h MPC        0000            (419) Aurelia
00451    6.65  0.19 K172G 316.13981  337.00609   89.24566   15.23633  0.0754755  0.18397115   3.0617489  0 MPO394992  2331  73 1899-2017 0.48 M-v 38h MPC        0000            (451) Patientia
00532    5.81  0.26 K172G 173.67402   76.13778  107.54963   16.31234  0.1756507  0.21338286   2.7735098  0 MPO394993  3218  76 1904-2017 0.56 M-v 38h MPC        0000            (532) Herculina
00704    5.94 -0.02 K172G 313.02055   95.16469  280.29714   17.30747  0.1543629  0.18431655   3.0579227  0 MPO394995  3438  72 1910-2016 0.51 M-v 38h MPC        0000            (704) Interamnia
00804    7.84  0.18 K172G 318.75138  344.66975  347.60860   15.39505  0.1396806  0.20616654   2.8378576  0 MPO384752  1531  45 1907-2016 0.47 M-v 38h MPC        0000            (804) Hispania
